NORAD_CAT_ID,OBJECT_NAME,OBJECT_TYPE,EPOCH,MEAN_MOTION,ECCENTRICITY,INCLINATION,RA_OF_ASC_NODE,ARG_OF_PERICENTER,MEAN_ANOMALY,BSTAR,MEAN_MOTION_DOT,MEAN_MOTION_DDOT,TLE_LINE0,TLE_LINE1,TLE_LINE2,SEMIMAJOR_AXIS,PERIOD,APOGEE,PERIGEE,DECAYED
55649.0,STARLINK-5469,PAYLOAD,2023-03-04 14:00:01,15.73642497,0.0003627,70.0001,108.3076,277.7737,139.9431,-0.0077187,-0.00969085,0.0,0 STARLINK-5469,1 55649U 23021X   23063.58334491 -.00969085  00000-0 -77187-2 0  9999,2 55649  70.0001 108.3076 0003627 277.7737 139.9431 15.73642497  1304,6726.634,91.507,350.939,346.059,0.0
55649.0,STARLINK-5469,PAYLOAD,2023-03-04 16:00:00,15.73469485,0.0003471,69.9997,108.072,276.9845,252.652,-0.0078349,-0.00991345,0.0,0 STARLINK-5469,1 55649U 23021X   23063.66667824 -.00991345  00000-0 -78349-2 0  9992,2 55649  69.9997 108.0720 0003471 276.9845 252.6520 15.73469485  2886,6727.127,91.518,351.327,346.657,0.0
55649.0,STARLINK-5469,PAYLOAD,2023-03-04 22:00:00,15.72899178,0.0003368,69.9956,107.3579,270.596,234.4949,-0.0074278,-0.00909639,0.0,0 STARLINK-5469,1 55649U 23021X   23063.91667824 -.00909639  00000-0 -74278-2 0  9992,2 55649  69.9956 107.3579 0003368 270.5960 234.4949 15.72899178  1302,6728.753,91.551,352.884,348.352,0.0
55649.0,STARLINK-5469,PAYLOAD,2023-03-05 14:00:01,15.71525763,0.0003663,69.9948,105.477,273.2885,43.9758,-0.0084759,-0.00987499,0.0,0 STARLINK-5469,1 55649U 23021X   23064.58334491 -.00987499  00000-0 -84759-2 0  9992,2 55649  69.9948 105.4770 0003663 273.2885  43.9758 15.71525763  1305,6732.673,91.631,357.004,352.072,0.0
55649.0,STARLINK-5469,PAYLOAD,2023-03-05 16:00:00,15.71373399,0.0003569,69.9946,105.2421,274.5623,153.9804,-0.0089725,-0.01033666,0.0,0 STARLINK-5469,1 55649U 23021X   23064.66667824 -.01033666  00000-0 -89725-2 0  9997,2 55649  69.9946 105.2421 0003569 274.5623 153.9804 15.71373399  3046,6733.108,91.64,357.376,352.57,0.0
55649.0,STARLINK-5469,PAYLOAD,2023-03-05 22:00:00,15.70751994,0.0003606,69.995,104.5378,266.8062,135.2994,-0.0075539,-0.00850629,0.0,0 STARLINK-5469,1 55649U 23021X   23064.91667824 -.00850629  00000-0 -75539-2 0  9998,2 55649  69.9950 104.5378 0003606 266.8062 135.2994 15.70751994  1307,6734.884,91.676,359.177,354.32,0.0
55649.0,STARLINK-5469,PAYLOAD,2023-03-06 08:00:01,15.69918556,0.0003412,69.996,103.3655,272.4991,324.4381,-0.00012738,-0.00015498,0.0,0 STARLINK-5469,1 55649U 23021X   23065.33334491 -.00015498  00000-0 -12738-3 0  9996,2 55649  69.9960 103.3655 0003412 272.4991 324.4381 15.69918556  3145,6737.267,91.725,361.431,356.833,0.0
55649.0,STARLINK-5469,PAYLOAD,2023-03-06 22:00:00,15.69894595,0.0003416,69.9974,101.725,268.176,24.6163,0.00057557,0.00069486,0.0,0 STARLINK-5469,1 55649U 23021X   23065.91667824  .00069486  00000-0  57557-3 0  9991,2 55649  69.9974 101.7250 0003416 268.1760  24.6163 15.69894595  1302,6737.336,91.726,361.502,356.899,0.0
55649.0,STARLINK-5469,PAYLOAD,2023-03-07 08:00:01,15.69897864,0.0003629,69.9988,100.5535,270.6035,216.324,0.00028281,0.00033895,0.0,0 STARLINK-5469,1 55649U 23021X   23066.33334491  .00033895  00000-0  28281-3 0  9996,2 55649  69.9988 100.5535 0003629 270.6035 216.3240 15.69897864  3309,6737.326,91.726,361.636,356.746,0.0
55649.0,STARLINK-5469,PAYLOAD,2023-03-07 22:00:00,15.6988363,0.0003631,70.0001,98.9127,263.3364,279.4603,0.00045157,0.00054349,0.0,0 STARLINK-5469,1 55649U 23021X   23066.91667824  .00054349  00000-0  45157-3 0  9997,2 55649  70.0001  98.9127 0003631 263.3364 279.4603 15.69883630  1309,6737.367,91.727,361.678,356.786,0.0
55649.0,STARLINK-5469,PAYLOAD,2023-03-08 06:00:00,15.69898926,0.0003582,70.0007,97.9755,267.0695,359.0319,3.4251e-05,3.903e-05,0.0,0 STARLINK-5469,1 55649U 23021X   23067.25001157  .00003903  00000-0  34251-4 0  9990,2 55649  70.0007  97.9755 0003582 267.0695 359.0319 15.69898926  3444,6737.323,91.726,361.601,356.775,0.0
55649.0,STARLINK-5469,PAYLOAD,2023-03-08 16:00:00,15.70014204,0.0003432,70.0005,96.8041,268.3135,191.9281,-0.0013568,-0.00160876,0.0,0 STARLINK-5469,1 55649U 23021X   23067.66667824 -.00160876  00000-0 -13568-2 0  9995,2 55649  70.0005  96.8041 0003432 268.3135 191.9281 15.70014204  3515,6736.993,91.719,361.171,356.546,0.0
55649.0,STARLINK-5469,PAYLOAD,2023-03-08 22:00:00,15.69868629,0.0003481,70.0007,96.1013,260.8859,171.9214,0.00071561,0.00086528,0.0,0 STARLINK-5469,1 55649U 23021X   23067.91667824  .00086528  00000-0  71561-3 0  9990,2 55649  70.0007  96.1013 0003481 260.8859 171.9214 15.69868629  1308,6737.41,91.727,361.62,356.93,0.0
55649.0,STARLINK-5469,PAYLOAD,2023-03-09 02:00:01,15.69924911,0.0003456,70.001,95.6327,260.2434,34.2019,4.0259e-05,4.631e-05,0.0,0 STARLINK-5469,1 55649U 23021X   23068.08334491  .00004631  00000-0  40259-4 0  9996,2 55649  70.0010  95.6327 0003456 260.2434  34.2019 15.69924911  3571,6737.249,91.724,361.442,356.785,0.0
55649.0,STARLINK-5469,PAYLOAD,2023-03-09 22:00:00,15.69860799,0.0003401,70.0003,93.2895,256.4538,66.3624,0.00078289,0.00094744,0.0,0 STARLINK-5469,1 55649U 23021X   23068.91667824  .00094744  00000-0  78289-3 0  9994,2 55649  70.0003  93.2895 0003401 256.4538  66.3624 15.69860799  1309,6737.432,91.728,361.589,357.006,0.0
55649.0,STARLINK-5469,PAYLOAD,2023-03-10 04:16:31,15.69933531,0.0003546,70.0005,92.5547,259.0339,101.0458,6.3948e-05,7.486e-05,0.0,0 STARLINK-5469,1 55649U 23021X   23069.17814491  .00007486  00000-0  63948-4 0  9991,2 55649  70.0005  92.5547 0003546 259.0339 101.0458 15.69933531  3742,6737.224,91.724,361.478,356.7,0.0
55649.0,STARLINK-5469,PAYLOAD,2023-03-10 10:23:32,15.69921994,0.0003345,70.0003,91.8385,258.3482,101.7338,4.3459e-06,3.1e-06,0.0,0 STARLINK-5469,1 55649U 23021X   23069.43301519  .00000310  00000-0  43459-5 0  9997,2 55649  70.0003  91.8385 0003345 258.3482 101.7338 15.69921994  3788,6737.257,91.724,361.376,356.869,0.0
55649.0,STARLINK-5469,PAYLOAD,2023-03-10 18:02:18,15.699201,0.0003341,70.0004,90.9423,263.7386,96.3429,3.5813e-06,2.18e-06,0.0,0 STARLINK-5469,1 55649U 23021X   23069.75160114  .00000218  00000-0  35813-5 0  9998,2 55649  70.0004  90.9423 0003341 263.7386  96.3429 15.69920100  4140,6737.263,91.724,361.379,356.877,0.0
55649.0,STARLINK-5469,PAYLOAD,2023-03-11 04:44:33,15.69932963,0.0003367,70.0002,89.6882,262.463,97.6183,3.6493e-05,4.179e-05,0.0,0 STARLINK-5469,1 55649U 23021X   23070.19761426  .00004179  00000-0  36493-4 0  9995,2 55649  70.0002  89.6882 0003367 262.4630  97.6183 15.69932963  3902,6737.226,91.724,361.359,356.822,0.0
55649.0,STARLINK-5469,PAYLOAD,2023-03-11 12:23:20,15.69915054,0.000243,70.0005,88.7929,287.2625,72.8305,-1.6024e-06,-4.05e-06,0.0,0 STARLINK-5469,1 55649U 23021X   23070.51620745 -.00000405  00000-0 -16024-5 0  9998,2 55649  70.0005  88.7929 0002430 287.2625  72.8305 15.69915054  4269,6737.277,91.725,360.779,357.505,0.0
55649.0,STARLINK-5469,PAYLOAD,2023-03-12 03:40:51,15.69925589,0.000301,70.0009,87.0013,265.9153,94.1699,3.3693e-05,3.841e-05,0.0,0 STARLINK-5469,1 55649U 23021X   23071.15337064  .00003841  00000-0  33693-4 0  9993,2 55649  70.0009  87.0013 0003010 265.9153  94.1699 15.69925589  4057,6737.247,91.724,361.14,357.084,0.0
55649.0,STARLINK-5469,PAYLOAD,2023-03-12 12:51:21,15.69947446,0.0003495,70.0007,85.9267,272.6918,87.3878,8.5407e-05,0.00010079,0.0,0 STARLINK-5469,1 55649U 23021X   23071.53566195  .00010079  00000-0  85407-4 0  9995,2 55649  70.0007  85.9267 0003495 272.6918  87.3878 15.69947446  4110,6737.184,91.723,361.404,356.695,0.0
55649.0,STARLINK-5469,PAYLOAD,2023-03-13 13:19:23,15.69917717,0.0003401,70.0014,83.0612,279.6479,80.4333,-5.9479e-06,-9.28e-06,0.0,0 STARLINK-5469,1 55649U 23021X   23072.55513868 -.00000928  00000-0 -59479-5 0  9992,2 55649  70.0014  83.0612 0003401 279.6479  80.4333 15.69917717  4586,6737.269,91.725,361.426,356.843,0.0
55649.0,STARLINK-5469,PAYLOAD,2023-03-14 03:05:09,15.69935832,0.0003228,70.001,81.4465,276.3925,83.6903,4.2369e-05,4.887e-05,0.0,0 STARLINK-5469,1 55649U 23021X   23073.12858303  .00004887  00000-0  42369-4 0  9997,2 55649  70.0010  81.4465 0003228 276.3925  83.6903 15.69935832  4369,6737.218,91.723,361.257,356.908,0.0
55649.0,STARLINK-5469,PAYLOAD,2023-03-14 10:43:55,15.69934056,0.0003268,70.0009,80.5529,285.0044,75.079,3.9567e-05,4.549e-05,0.0,0 STARLINK-5469,1 55649U 23021X   23073.44716829  .00004549  00000-0  39567-4 0  9999,2 55649  70.0009  80.5529 0003268 285.0044  75.0790 15.69934056  4727,6737.223,91.724,361.289,356.886,0.0
55649.0,STARLINK-5469,PAYLOAD,2023-03-15 03:33:10,15.6997663,0.0003196,70.0013,78.5827,281.5825,78.5012,0.00014752,0.00017601,0.0,0 STARLINK-5469,1 55649U 23021X   23074.14803584  .00017601  00000-0  14752-3 0  9993,2 55649  70.0013  78.5827 0003196 281.5825  78.5012 15.69976630  4525,6737.101,91.721,361.119,356.813,0.0
55649.0,STARLINK-5469,PAYLOAD,2023-03-15 09:40:12,15.69917911,0.0002971,70.0016,77.8665,281.4014,78.6848,-7.4398e-06,-1.107e-05,0.0,0 STARLINK-5469,1 55649U 23021X   23074.40292431 -.00001107  00000-0 -74398-5 0  9995,2 55649  70.0016  77.8665 0002971 281.4014  78.6848 15.69917911  4568,6737.269,91.725,361.135,357.132,0.0
55649.0,STARLINK-5469,PAYLOAD,2023-03-15 12:43:42,15.69926764,0.0002577,70.0014,77.505,275.145,84.9452,1.9567e-05,2.141e-05,0.0,0 STARLINK-5469,1 55649U 23021X   23074.53035511  .00002141  00000-0  19567-4 0  9996,2 55649  70.0014  77.5050 0002577 275.1450  84.9452 15.69926764  4890,6737.244,91.724,360.845,357.372,0.0
55649.0,STARLINK-5469,PAYLOAD,2023-03-16 11:39:59,15.69939512,0.000295,70.0008,74.8199,275.7717,84.3142,5.1123e-05,5.942e-05,0.0,0 STARLINK-5469,1 55649U 23021X   23075.48610193  .00005942  00000-0  51123-4 0  9992,2 55649  70.0008  74.8199 0002950 275.7717  84.3142 15.69939512  5047,6737.207,91.723,361.06,357.085,0.0
55649.0,STARLINK-5469,PAYLOAD,2023-03-16 23:54:00,15.69914817,0.0003567,70.0,73.3874,262.983,97.096,5.6089e-06,4.61e-06,0.0,0 STARLINK-5469,1 55649U 23021X   23075.99584473  .00000461  00000-0  56089-5 0  9997,2 55649  70.0000  73.3874 0003567 262.9830  97.0960 15.69914817  4816,6737.278,91.725,361.546,356.74,0.0
